H1 CPF 01  gfz 2021 05 20 12  6402 terrasarx 
H2 0702601  6201 31698    2021 05 20 12 59 42 2021 05 25 00 00 42   120 1 1  0 0 0
H9
10 0 59357  35982.000000  0   -2964147.813   3769666.511  -4953258.623
10 0 59357  36102.000000  0   -3163445.748   4373517.672  -4288424.465
10 0 59357  36222.000000  0   -3297789.649   4904211.807  -3548463.772
10 0 59357  36342.000000  0   -3366153.284   5351280.233  -2746271.800
10 0 59357  36462.000000  0   -3368828.601   5705689.138  -1895866.688
10 0 59357  36582.000000  0   -3307400.951   5960031.623  -1012146.629
10 0 59357  36702.000000  0   -3184696.219   6108689.938   -110626.138
10 0 59357  36822.000000  0   -3004704.165   6147963.844    792840.399
10 0 59357  36942.000000  0   -2772477.527   6076163.537   1682347.171
10 0 59357  37062.000000  0   -2494006.222   5893659.440   2542228.064
10 0 59357  37182.000000  0   -2176073.377   5602888.864   3357341.051
10 0 59357  37302.000000  0   -1826097.681   5208321.788   4113340.681
10 0 59357  37422.000000  0   -1451965.460   4716386.603   4796934.457
10 0 59357  37542.000000  0   -1061855.613   4135357.600   5396118.070
10 0 59357  37662.000000  0    -664062.326   3475206.871   5900384.102
10 0 59357  37782.000000  0    -266821.040   2747424.821   6300902.172
10 0 59357  37902.000000  0     121860.308   1964813.392   6590667.260
10 0 59357  38022.000000  0     494360.930   1141257.082   6764616.605
10 0 59357  38142.000000  0     843595.352    291473.771   6819712.450
10 0 59357  38262.000000  0    1163146.855   -569247.540   6754991.230
10 0 59357  38382.000000  0    1447384.683  -1425321.120   6571580.590
10 0 59357  38502.000000  0    1691563.447  -2261146.140   6272681.143
10 0 59357  38622.000000  0    1891902.839  -3061391.382   5863514.865
10 0 59357  38742.000000  0    2045646.612  -3811278.743   5351238.950
10 0 59357  38862.000000  0    2151099.464  -4496859.453   4744825.663
10 0 59357  38982.000000  0    2207642.001  -5105278.249   4054911.235
10 0 59357  39102.000000  0    2215724.181  -5625022.989   3293613.791
10 0 59357  39222.000000  0    2176833.951  -6046151.557   2474321.130
10 0 59357  39342.000000  0    2093443.568  -6360490.190   1611453.525
10 0 59357  39462.000000  0    1968936.018  -6561798.617    720206.344
10 0 59357  39582.000000  0    1807511.032  -6645899.850   -183723.255
10 0 59357  39702.000000  0    1614074.231  -6610770.659  -1084421.782
10 0 59357  39822.000000  0    1394109.782  -6456585.190  -1966051.001
10 0 59357  39942.000000  0    1153541.610  -6185714.188  -2813133.557
10 0 59357  40062.000000  0     898588.251  -5802679.548  -3610830.701
10 0 59357  40182.000000  0     635615.430  -5314067.208  -4345203.754
10 0 59357  40302.000000  0     370987.522  -4728401.385  -5003455.995
10 0 59357  40422.000000  0     110922.994  -4055983.812  -5574149.749
10 0 59357  40542.000000  0    -138643.046  -3308702.185  -6047396.838
10 0 59357  40662.000000  0    -372186.382  -2499812.175  -6415019.082
10 0 59357  40782.000000  0    -584708.972  -1643698.269  -6670678.113
10 0 59357  40902.000000  0    -771840.140   -755618.150  -6809973.909
10 0 59357  41022.000000  0    -929921.919    148566.124  -6830512.883
10 0 59357  41142.000000  0   -1056077.587   1052665.684  -6731943.216
10 0 59357  41262.000000  0   -1148262.681   1940447.026  -6515960.029
10 0 59357  41382.000000  0   -1205297.514   2795915.960  -6186279.257
10 0 59357  41502.000000  0   -1226881.038   3603600.648  -5748582.262
10 0 59357  41622.000000  0   -1213585.940   4348829.717  -5210427.564
10 0 59357  41742.000000  0   -1166834.524   5018000.266  -4581132.064
10 0 59357  41862.000000  0   -1088856.312   5598832.231  -3871620.478
10 0 59357  41982.000000  0    -982627.181   6080602.111  -3094244.203
10 0 59357  42102.000000  0    -851791.188   6454351.277  -2262573.207
10 0 59357  42222.000000  0    -700566.513   6713065.197  -1391162.517
10 0 59357  42342.000000  0    -533637.929   6851816.596   -495296.894
10 0 59357  42462.000000  0    -356037.290   6867870.172    409280.714
10 0 59357  42582.000000  0    -173015.379   6760744.748   1306653.250
10 0 59357  42702.000000  0      10090.884   6532228.625   2181019.965
10 0 59357  42822.000000  0     187992.435   6186347.276   3016983.349
10 0 59357  42942.000000  0     355580.207   5729287.595   3799826.459
10 0 59357  43062.000000  0     508052.753   5169282.299   4515776.833
10 0 59357  43182.000000  0     641035.222   4516451.532   5152256.135
10 0 59357  43302.000000  0     750686.729   3782605.472   5698097.313
10 0 59357  43422.000000  0     833795.451   2981023.998   6143736.410
10 0 59357  43542.000000  0     887857.181   2126208.445   6481375.670
10 0 59357  43662.000000  0     911136.615   1233613.974   6705113.977
10 0 59357  43782.000000  0     902710.872    319366.738   6811043.891
10 0 59357  43902.000000  0     862494.229   -600026.974   6797314.968
10 0 59357  44022.000000  0     791243.436  -1507977.948   6664165.530
10 0 59357  44142.000000  0     690543.514  -2388113.271   6413919.108
10 0 59357  44262.000000  0     562774.236  -3224572.319   6050947.126
10 0 59357  44382.000000  0     411057.593  -4002294.700   5581594.938
10 0 59357  44502.000000  0     239188.418  -4707292.589   5014075.831
10 0 59357  44622.000000  0      51549.121  -5326907.116   4358335.071
10 0 59357  44742.000000  0    -146991.240  -5850045.665   3625881.805
10 0 59357  44862.000000  0    -351191.987  -6267390.945   2829589.274
10 0 59357  44982.000000  0    -555566.145  -6571577.305   1983467.958
10 0 59357  45102.000000  0    -754513.013  -6757328.848   1102416.388
10 0 59357  45222.000000  0    -942455.874  -6821560.150    201953.315
10 0 59357  45342.000000  0   -1113980.982  -6763430.790   -702065.564
10 0 59357  45462.000000  0   -1263972.734  -6584353.296  -1593736.101
10 0 59357  45582.000000  0   -1387742.460  -6287956.286  -2457393.337
10 0 59357  45702.000000  0   -1481148.252  -5880004.391  -3277893.076
10 0 59357  45822.000000  0   -1540702.569  -5368276.051  -4040881.804
10 0 59357  45942.000000  0   -1563664.567  -4762402.563  -4733047.989
10 0 59357  46062.000000  0   -1548115.289  -4073674.714  -5342349.696
10 0 59357  46182.000000  0   -1493014.624  -3314822.600  -5858216.464
10 0 59357  46302.000000  0   -1398238.838  -2499773.086  -6271723.314
10 0 59357  46422.000000  0   -1264598.164  -1643389.467  -6575734.137
10 0 59357  46542.000000  0   -1093834.836   -761199.897  -6765013.094
10 0 59357  46662.000000  0    -888602.039    130881.076  -6836305.236
10 0 59357  46782.000000  0    -652422.898   1016833.774  -6788385.567
10 0 59357  46902.000000  0    -389630.892   1880813.429  -6622077.480
10 0 59357  47022.000000  0    -105293.379   2707426.039  -6340240.336
10 0 59357  47142.000000  0     194882.397   3481997.774  -5947727.466
10 0 59357  47262.000000  0     504660.120   4190833.945  -5451311.122
10 0 59357  47382.000000  0     817398.485   4821461.467  -4859576.074
10 0 59357  47502.000000  0    1126187.652   5362853.710  -4182783.127
10 0 59357  47622.000000  0    1423996.024   5805632.035  -3432700.989
10 0 59357  47742.000000  0    1703823.859   6142238.659  -2622409.533
10 0 59357  47862.000000  0    1958860.627   6367078.042  -1766076.658
10 0 59357  47982.000000  0    2182642.682   6476622.139   -878711.009
10 0 59357  48102.000000  0    2369206.980   6469475.000     24104.823
10 0 59357  48222.000000  0    2513236.540   6346394.735    926494.113
10 0 59357  48342.000000  0    2610194.029   6110272.402   1812572.642
10 0 59357  48462.000000  0    2656440.019   5766068.329   2666736.435
10 0 59357  48582.000000  0    2649333.222   5320707.455   3473944.386
10 0 59357  48702.000000  0    2587310.120   4782935.913   4219989.990
10 0 59357  48822.000000  0    2469941.141   4163142.530   4891757.449
10 0 59357  48942.000000  0    2297960.524   3473146.680   5477453.413
10 0 59357  49062.000000  0    2073273.166   2725964.883   5966809.392
10 0 59357  49182.000000  0    1798938.108   1935559.799   6351257.673
10 0 59357  49302.000000  0    1479126.908   1116573.848   6624076.603
10 0 59357  49422.000000  0    1119058.850    284054.474   6780500.919
10 0 59357  49542.000000  0     724915.089   -546821.498   6817799.163
10 0 59357  49662.000000  0     303732.362  -1361023.961   6735320.198
10 0 59357  49782.000000  0    -136722.875  -2143941.620   6534503.886
10 0 59357  49902.000000  0    -588097.684  -2881644.388   6218857.206
10 0 59357  50022.000000  0   -1041609.667  -3561132.168   5793894.920
10 0 59357  50142.000000  0   -1488214.747  -4170564.667   5267048.206
10 0 59357  50262.000000  0   -1918786.226  -4699472.044   4647543.381
10 0 59357  50382.000000  0   -2324301.892  -5138942.989   3946247.492
10 0 59357  50502.000000  0   -2696034.026  -5481784.413   3175480.726
10 0 59357  50622.000000  0   -3025736.734  -5722646.459   2348799.408
10 0 59357  50742.000000  0   -3305826.930  -5858111.693   1480755.663
10 0 59357  50862.000000  0   -3529555.129  -5886746.855    586636.657
10 0 59357  50982.000000  0   -3691161.479  -5809114.782   -317811.569
10 0 59357  51102.000000  0   -3786013.037  -5627746.296  -1216669.985
10 0 59357  51222.000000  0   -3810718.408  -5347071.665  -2094136.187
10 0 59357  51342.000000  0   -3763216.848  -4973313.490  -2934810.282
10 0 59357  51462.000000  0   -3642839.414  -4514344.410  -3723970.616
10 0 59357  51582.000000  0   -3450340.932  -3979514.459  -4447832.868
10 0 59357  51702.000000  0   -3187903.362  -3379453.580  -5093788.193
10 0 59357  51822.000000  0   -2859110.936  -2725853.660  -5650616.885
10 0 59357  51942.000000  0   -2468898.326  -2031235.797  -6108674.110
10 0 59357  52062.000000  0   -2023472.950  -1308707.995  -6460046.936
10 0 59357  52182.000000  0   -1530212.615   -571717.297  -6698679.602
10 0 59357  52302.000000  0    -997542.301    166197.813  -6820465.992
10 0 59357  52422.000000  0    -434792.262    891650.211  -6823311.960
99
